[{"OBJECT_NAME":"FLOCK 4G-13","OBJECT_ID":"2025-009N","EPOCH":"2026-03-09T16:57:12.071808","MEAN_MOTION":15.32770015,"ECCENTRICITY":0.0003801,"INCLINATION":97.4019,"RA_OF_ASC_NODE":151.0918,"ARG_OF_PERICENTER":292.7207,"MEAN_ANOMALY":67.3633,"EPHEMERIS_TYPE":0,"CLASSIFICATION_TYPE":"U","NORAD_CAT_ID":62621,"ELEMENT_SET_NO":999,"REV_AT_EPOCH":6370,"BSTAR":0.0016695386,"MEAN_MOTION_DOT":0.00053076,"MEAN_MOTION_DDOT":0},{"OBJECT_NAME":"STARLINK-34731","OBJECT_ID":"2025-161Q","EPOCH":"2026-03-09T21:54:52.015392","MEAN_MOTION":15.30197953,"ECCENTRICITY":0.00024547,"INCLINATION":53.1578,"RA_OF_ASC_NODE":293.196,"ARG_OF_PERICENTER":179.6153,"MEAN_ANOMALY":180.485,"EPHEMERIS_TYPE":0,"CLASSIFICATION_TYPE":"U","NORAD_CAT_ID":65029,"ELEMENT_SET_NO":999,"REV_AT_EPOCH":3536,"BSTAR":0.00084822024,"MEAN_MOTION_DOT":0.00024846,"MEAN_MOTION_DDOT":0}]
